{
  "type": "FeatureCollection",
  "features": [
    {
      "type": "Feature",
      "properties": {
        "norad_id": 34682,
        "name": "COSMOS 2251 DEB",
        "group": "cosmos-2251-debris",
        "lat": -66.51579494738358,
        "lon": -84.50964240805084,
        "alt_km": 698.4468759398296,
        "timestamp": "2025-12-27T19:21:59.140107+00:00",
        "meta_object_name": "COSMOS 2251 DEB",
        "meta_object_id": "1993-036YC",
        "meta_epoch": "2025-12-27T10:03:14.433984",
        "meta_mean_motion": 14.58995786,
        "meta_eccentricity": 0.0017502,
        "meta_inclination": 74.0396,
        "meta_ra_of_asc_node": 55.0298,
        "meta_arg_of_pericenter": 186.32,
        "meta_mean_anomaly": 188.8278,
        "meta_ephemeris_type": 0,
        "meta_classification_type": "U",
        "meta_norad_cat_id": 34682,
        "meta_element_set_no": 999,
        "meta_rev_at_epoch": 88900,
        "meta_bstar": 0.00078916,
        "meta_mean_motion_dot": 3.685e-05,
        "meta_mean_motion_ddot": 0,
        "tle_line1": "1 34682U 93036YC  25361.41891706  .00003685  00000+0  78916-3 0  9992",
        "tle_line2": "2 34682  74.0396  55.0298 0017502 186.3200 188.8278 14.58995786889007"
      },
      "geometry": {
        "type": "Point",
        "coordinates": [
          -84.50964240805084,
          -66.51579494738358
        ]
      }
    },
    {
      "type": "Feature",
      "properties": {
        "norad_id": 34683,
        "name": "COSMOS 2251 DEB",
        "group": "cosmos-2251-debris",
        "lat": -9.456176620577825,
        "lon": 60.55934975930037,
        "alt_km": 693.9076164892531,
        "timestamp": "2025-12-27T19:21:59.140117+00:00",
        "meta_object_name": "COSMOS 2251 DEB",
        "meta_object_id": "1993-036YD",
        "meta_epoch": "2025-12-27T06:35:23.843328",
        "meta_mean_motion": 14.64671179,
        "meta_eccentricity": 0.001715,
        "meta_inclination": 74.029,
        "meta_ra_of_asc_node": 64.3168,
        "meta_arg_of_pericenter": 178.5514,
        "meta_mean_anomaly": 245.8533,
        "meta_ephemeris_type": 0,
        "meta_classification_type": "U",
        "meta_norad_cat_id": 34683,
        "meta_element_set_no": 999,
        "meta_rev_at_epoch": 88561,
        "meta_bstar": 0.0012711,
        "meta_mean_motion_dot": 6.752e-05,
        "meta_mean_motion_ddot": 0,
        "tle_line1": "1 34683U 93036YD  25361.27458152  .00006752  00000+0  12711-2 0  9999",
        "tle_line2": "2 34683  74.0290  64.3168 0017150 178.5514 245.8533 14.64671179885615"
      },
      "geometry": {
        "type": "Point",
        "coordinates": [
          60.55934975930037,
          -9.456176620577825
        ]
      }
    },
    {
      "type": "Feature",
      "properties": {
        "norad_id": 34685,
        "name": "COSMOS 2251 DEB",
        "group": "cosmos-2251-debris",
        "lat": 55.48477684755973,
        "lon": -84.47762706911483,
        "alt_km": 697.601958397916,
        "timestamp": "2025-12-27T19:21:59.140126+00:00",
        "meta_object_name": "COSMOS 2251 DEB",
        "meta_object_id": "1993-036YF",
        "meta_epoch": "2025-12-26T14:54:43.184160",
        "meta_mean_motion": 14.57632396,
        "meta_eccentricity": 0.0014147,
        "meta_inclination": 74.0295,
        "meta_ra_of_asc_node": 122.3864,
        "meta_arg_of_pericenter": 227.7376,
        "meta_mean_anomaly": 154.4807,
        "meta_ephemeris_type": 0,
        "meta_classification_type": "U",
        "meta_norad_cat_id": 34685,
        "meta_element_set_no": 999,
        "meta_rev_at_epoch": 88734,
        "meta_bstar": 0.0011969,
        "meta_mean_motion_dot": 5.438e-05,
        "meta_mean_motion_ddot": 0,
        "tle_line1": "1 34685U 93036YF  25360.62133315  .00005438  00000+0  11969-2 0  9994",
        "tle_line2": "2 34685  74.0295 122.3864 0014147 227.7376 154.4807 14.57632396887347"
      },
      "geometry": {
        "type": "Point",
        "coordinates": [
          -84.47762706911483,
          55.48477684755973
        ]
      }
    },
    {
      "type": "Feature",
      "properties": {
        "norad_id": 34689,
        "name": "COSMOS 2251 DEB",
        "group": "cosmos-2251-debris",
        "lat": -27.331358377669055,
        "lon": -171.29715683251504,
        "alt_km": 820.9674858772105,
        "timestamp": "2025-12-27T19:21:59.140135+00:00",
        "meta_object_name": "COSMOS 2251 DEB",
        "meta_object_id": "1993-036YK",
        "meta_epoch": "2025-12-27T12:48:07.831008",
        "meta_mean_motion": 14.04623679,
        "meta_eccentricity": 0.022632,
        "meta_inclination": 74.0887,
        "meta_ra_of_asc_node": 197.6563,
        "meta_arg_of_pericenter": 263.186,
        "meta_mean_anomaly": 123.49,
        "meta_ephemeris_type": 0,
        "meta_classification_type": "U",
        "meta_norad_cat_id": 34689,
        "meta_element_set_no": 999,
        "meta_rev_at_epoch": 84549,
        "meta_bstar": 0.0033015,
        "meta_mean_motion_dot": 6.616e-05,
        "meta_mean_motion_ddot": 0,
        "tle_line1": "1 34689U 93036YK  25361.53342397  .00006616  00000+0  33015-2 0  9996",
        "tle_line2": "2 34689  74.0887 197.6563 0226320 263.1860 123.4900 14.04623679845495"
      },
      "geometry": {
        "type": "Point",
        "coordinates": [
          -171.29715683251504,
          -27.331358377669055
        ]
      }
    },
    {
      "type": "Feature",
      "properties": {
        "norad_id": 34721,
        "name": "COSMOS 2251 DEB",
        "group": "cosmos-2251-debris",
        "lat": -50.03129985409055,
        "lon": -80.0182360908549,
        "alt_km": 854.8814831020927,
        "timestamp": "2025-12-27T19:21:59.140143+00:00",
        "meta_object_name": "COSMOS 2251 DEB",
        "meta_object_id": "1993-036YP",
        "meta_epoch": "2025-12-27T02:29:18.758112",
        "meta_mean_motion": 13.96906866,
        "meta_eccentricity": 0.02224874,
        "meta_inclination": 73.9227,
        "meta_ra_of_asc_node": 301.3262,
        "meta_arg_of_pericenter": 237.6042,
        "meta_mean_anomaly": 132.0018,
        "meta_ephemeris_type": 0,
        "meta_classification_type": "U",
        "meta_norad_cat_id": 34721,
        "meta_element_set_no": 999,
        "meta_rev_at_epoch": 85350,
        "meta_bstar": 0.001123856,
        "meta_mean_motion_dot": 1.903e-05,
        "meta_mean_motion_ddot": 0,
        "tle_line1": "1 34721U 93036YP  25361.10368933  .00001903  00000+0  11239-2 0  9998",
        "tle_line2": "2 34721  73.9227 301.3262 0222487 237.6042 132.0018 13.96906866853505"
      },
      "geometry": {
        "type": "Point",
        "coordinates": [
          -80.0182360908549,
          -50.03129985409055
        ]
      }
    },
    {
      "type": "Feature",
      "properties": {
        "norad_id": 34722,
        "name": "COSMOS 2251 DEB",
        "group": "cosmos-2251-debris",
        "lat": -73.80599213334605,
        "lon": -145.79470233724481,
        "alt_km": 762.2076165610879,
        "timestamp": "2025-12-27T19:21:59.140152+00:00",
        "meta_object_name": "COSMOS 2251 DEB",
        "meta_object_id": "1993-036YQ",
        "meta_epoch": "2025-12-27T02:52:25.320000",
        "meta_mean_motion": 14.11976126,
        "meta_eccentricity": 0.01663297,
        "meta_inclination": 73.8738,
        "meta_ra_of_asc_node": 310.4187,
        "meta_arg_of_pericenter": 233.4384,
        "meta_mean_anomaly": 142.3004,
        "meta_ephemeris_type": 0,
        "meta_classification_type": "U",
        "meta_norad_cat_id": 34722,
        "meta_element_set_no": 999,
        "meta_rev_at_epoch": 86448,
        "meta_bstar": 0.00073219183,
        "meta_mean_motion_dot": 1.5e-05,
        "meta_mean_motion_ddot": 0,
        "tle_line1": "1 34722U 93036YQ  25361.11973750  .00001500  00000+0  73219-3 0  9999",
        "tle_line2": "2 34722  73.8738 310.4187 0166329 233.4384 142.3004 14.11976126864486"
      },
      "geometry": {
        "type": "Point",
        "coordinates": [
          -145.79470233724481,
          -73.80599213334605
        ]
      }
    },
    {
      "type": "Feature",
      "properties": {
        "norad_id": 34726,
        "name": "COSMOS 2251 DEB",
        "group": "cosmos-2251-debris",
        "lat": -7.880120667235843,
        "lon": -44.690828196538035,
        "alt_km": 708.999235041757,
        "timestamp": "2025-12-27T19:21:59.140161+00:00",
        "meta_object_name": "COSMOS 2251 DEB",
        "meta_object_id": "1993-036YU",
        "meta_epoch": "2025-12-27T07:53:19.666176",
        "meta_mean_motion": 14.59542132,
        "meta_eccentricity": 0.0041675,
        "meta_inclination": 74.0294,
        "meta_ra_of_asc_node": 318.4927,
        "meta_arg_of_pericenter": 104.5537,
        "meta_mean_anomaly": 256.0257,
        "meta_ephemeris_type": 0,
        "meta_classification_type": "U",
        "meta_norad_cat_id": 34726,
        "meta_element_set_no": 999,
        "meta_rev_at_epoch": 88715,
        "meta_bstar": 0.00055586,
        "meta_mean_motion_dot": 2.644e-05,
        "meta_mean_motion_ddot": 0,
        "tle_line1": "1 34726U 93036YU  25361.32869984  .00002644  00000+0  55586-3 0  9996",
        "tle_line2": "2 34726  74.0294 318.4927 0041675 104.5537 256.0257 14.59542132887154"
      },
      "geometry": {
        "type": "Point",
        "coordinates": [
          -44.690828196538035,
          -7.880120667235843
        ]
      }
    }
  ]
}